NORAD_CAT_ID,OBJECT_NAME,OBJECT_TYPE,EPOCH,MEAN_MOTION,ECCENTRICITY,INCLINATION,RA_OF_ASC_NODE,ARG_OF_PERICENTER,MEAN_ANOMALY,BSTAR,MEAN_MOTION_DOT,MEAN_MOTION_DDOT,TLE_LINE0,TLE_LINE1,TLE_LINE2,SEMIMAJOR_AXIS,PERIOD,APOGEE,PERIGEE,DECAYED
53147.0,STARLINK-4094,PAYLOAD,2023-02-09 19:14:04,15.08850411,0.0001207,53.2163,179.446,97.4451,262.6678,6.1283e-05,6.88e-06,0.0,0 STARLINK-4094,1 53147U 22083R   23040.80143974  .00000688  00000-0  61283-4 0  9996,2 53147  53.2163 179.4460 0001207  97.4451 262.6678 15.08850411 32187,6917.849,95.437,540.549,538.879,0.0
53147.0,STARLINK-4094,PAYLOAD,2023-02-10 01:35:37,15.08841104,0.0001506,53.2185,178.2569,87.1372,272.9792,-8.2871e-05,-1.607e-05,0.0,0 STARLINK-4094,1 53147U 22083R   23041.06641032 -.00001607  00000-0 -82871-4 0  9993,2 53147  53.2185 178.2569 0001506  87.1372 272.9792 15.08841104 32245,6917.877,95.437,540.784,538.7,0.0
53147.0,STARLINK-4094,PAYLOAD,2023-02-10 11:07:57,15.08832817,0.0001518,53.2186,176.474,102.6108,257.5053,6.6321e-05,7.67e-06,0.0,0 STARLINK-4094,1 53147U 22083R   23041.46385566  .00000767  00000-0  66321-4 0  9990,2 53147  53.2186 176.4740 0001518 102.6108 257.5053 15.08832817 32284,6917.902,95.438,540.817,538.717,0.0
53147.0,STARLINK-4094,PAYLOAD,2023-02-10 17:29:28,15.08849419,0.000111,53.2174,175.2829,96.4262,263.6857,0.000145,2.021e-05,0.0,0 STARLINK-4094,1 53147U 22083R   23041.72880344  .00002021  00000-0  14500-3 0  9999,2 53147  53.2174 175.2829 0001110  96.4262 263.6857 15.08849419 32326,6917.852,95.437,540.484,538.949,0.0
53147.0,STARLINK-4094,PAYLOAD,2023-02-11 01:26:24,15.08841364,0.0001237,53.2163,173.7958,62.5761,297.5357,4.7889e-05,4.74e-06,0.0,0 STARLINK-4094,1 53147U 22083R   23042.06000841  .00000474  00000-0  47889-4 0  9990,2 53147  53.2163 173.7958 0001237  62.5761 297.5357 15.08841364 32375,6917.876,95.437,540.597,538.885,0.0
53147.0,STARLINK-4094,PAYLOAD,2023-02-11 10:58:44,15.08833754,0.0001593,53.2183,172.0152,86.7287,273.3887,5.6278e-07,-2.79e-06,0.0,0 STARLINK-4094,1 53147U 22083R   23042.45745684 -.00000279  00000-0  56278-6 0  9992,2 53147  53.2183 172.0152 0001593  86.7287 273.3887 15.08833754 32454,6917.899,95.438,540.867,538.662,0.0
53147.0,STARLINK-4094,PAYLOAD,2023-02-11 18:55:39,15.08850723,9.67e-05,53.2161,170.5245,73.9658,286.144,0.00020835,3.031e-05,0.0,0 STARLINK-4094,1 53147U 22083R   23042.78864596  .00003031  00000-0  20835-3 0  9997,2 53147  53.2161 170.5245 0000967  73.9658 286.1440 15.08850723 32508,6917.848,95.437,540.382,539.044,0.0
53147.0,STARLINK-4094,PAYLOAD,2023-02-12 12:24:54,15.08829452,0.0001006,53.2179,167.2509,56.3222,303.7866,0.00018164,2.603e-05,0.0,0 STARLINK-4094,1 53147U 22083R   23043.51730100  .00002603  00000-0  18164-3 0  9998,2 53147  53.2179 167.2509 0001006  56.3222 303.7866 15.08829452 32592,6917.913,95.438,540.474,539.082,0.0
53147.0,STARLINK-4094,PAYLOAD,2023-02-12 17:11:03,15.08852074,0.0001194,53.2167,166.3627,78.5796,281.533,0.00019465,2.812e-05,0.0,0 STARLINK-4094,1 53147U 22083R   23043.71601055  .00002812  00000-0  19465-3 0  9993,2 53147  53.2167 166.3627 0001194  78.5796 281.5330 15.08852074 32629,6917.843,95.437,540.534,538.882,0.0
53147.0,STARLINK-4094,PAYLOAD,2023-02-12 20:21:49,15.08863587,6.85e-05,53.2146,165.7693,52.816,307.2895,0.00047354,7.261e-05,0.0,0 STARLINK-4094,1 53147U 22083R   23043.84848384  .00007261  00000-0  47354-3 0  9996,2 53147  53.2146 165.7693 0000685  52.8160 307.2895 15.08863587 32641,6917.808,95.436,540.147,539.199,0.0
53147.0,STARLINK-4094,PAYLOAD,2023-02-13 09:04:55,15.08829234,0.0001242,53.2161,163.391,63.4654,296.6465,1.6392e-05,-2.7e-07,0.0,0 STARLINK-4094,1 53147U 22083R   23044.37842338 -.00000027  00000-0  16392-4 0  9991,2 53147  53.2161 163.3910 0001242  63.4654 296.6465 15.08829234 32724,6917.913,95.438,540.638,538.919,0.0
53147.0,STARLINK-4094,PAYLOAD,2023-02-13 13:51:04,15.08844357,0.0001297,53.2169,162.4985,86.2561,273.858,0.0002231,3.265e-05,0.0,0 STARLINK-4094,1 53147U 22083R   23044.57713636  .00003265  00000-0  22310-3 0  9993,2 53147  53.2169 162.4985 0001297  86.2561 273.8580 15.08844357 32777,6917.867,95.437,540.629,538.835,0.0
53147.0,STARLINK-4094,PAYLOAD,2023-02-13 17:01:50,15.08857686,0.0001283,53.2166,161.9018,79.6709,280.4427,0.00023428,3.444e-05,0.0,0 STARLINK-4094,1 53147U 22083R   23044.70960856  .00003444  00000-0  23428-3 0  9996,2 53147  53.2166 161.9018 0001283  79.6709 280.4427 15.08857686 32773,6917.826,95.436,540.579,538.804,0.0
53147.0,STARLINK-4094,PAYLOAD,2023-02-14 00:58:47,15.08824172,0.0001141,53.2168,160.4157,99.1844,260.9277,-0.00029014,-4.9e-05,0.0,0 STARLINK-4094,1 53147U 22083R   23045.04082268 -.00004900  00000-0 -29014-3 0  9993,2 53147  53.2168 160.4157 0001141  99.1844 260.9277 15.08824172 32829,6917.929,95.439,540.583,539.004,0.0
53147.0,STARLINK-4094,PAYLOAD,2023-02-14 13:41:52,15.08825512,3.82e-05,53.2175,158.0395,87.9172,272.1864,-8.8527e-05,-1.695e-05,0.0,0 STARLINK-4094,1 53147U 22083R   23045.57074494 -.00001695  00000-0 -88527-4 0  9996,2 53147  53.2175 158.0395 0000382  87.9172 272.1864 15.08825512 32926,6917.925,95.438,540.054,539.525,0.0
53147.0,STARLINK-4094,PAYLOAD,2023-02-14 16:52:37,15.088508,0.0001745,53.2166,157.4467,78.3833,281.7355,0.0001223,1.659e-05,0.0,0 STARLINK-4094,1 53147U 22083R   23045.70321468  .00001659  00000-0  12230-3 0  9992,2 53147  53.2166 157.4467 0001745  78.3833 281.7355 15.08850800 32920,6917.847,95.437,540.92,538.505,0.0
53147.0,STARLINK-4094,PAYLOAD,2023-02-15 00:49:33,15.08838499,0.0001851,53.2157,155.9574,77.6005,282.5194,-2.1009e-05,-6.22e-06,0.0,0 STARLINK-4094,1 53147U 22083R   23046.03441797 -.00000622  00000-0 -21009-4 0  9993,2 53147  53.2157 155.9574 0001851  77.6005 282.5194 15.08838499 32978,6917.885,95.438,541.03,538.469,0.0
53147.0,STARLINK-4094,PAYLOAD,2023-02-15 13:32:37,15.08864718,0.0001514,53.2164,153.5764,86.2749,273.8417,0.00031593,4.747e-05,0.0,0 STARLINK-4094,1 53147U 22083R   23046.56432548  .00004747  00000-0  31593-3 0  9993,2 53147  53.2164 153.5764 0001514  86.2749 273.8417 15.08864718 33074,6917.805,95.436,540.717,538.622,0.0
53147.0,STARLINK-4094,PAYLOAD,2023-02-15 16:43:24,15.08867236,0.0001637,53.2159,152.9815,85.2764,274.8415,0.00053285,8.209e-05,0.0,0 STARLINK-4094,1 53147U 22083R   23046.69680558  .00008209  00000-0  53285-3 0  9992,2 53147  53.2159 152.9815 0001637  85.2764 274.8415 15.08867236 33077,6917.797,95.436,540.795,538.53,0.0
53147.0,STARLINK-4094,PAYLOAD,2023-02-16 02:15:42,15.08852245,7.72e-05,53.2172,151.1975,83.9653,276.1427,0.00021454,3.129e-05,0.0,0 STARLINK-4094,1 53147U 22083R   23047.09424692  .00003129  00000-0  21454-3 0  9991,2 53147  53.2172 151.1975 0000772  83.9653 276.1427 15.08852245 33130,6917.843,95.437,540.242,539.174,0.0
53147.0,STARLINK-4094,PAYLOAD,2023-02-16 11:48:01,15.08863627,0.000173,53.2152,149.4157,92.4328,267.6862,0.00042548,6.494e-05,0.0,0 STARLINK-4094,1 53147U 22083R   23047.49168257  .00006494  00000-0  42548-3 0  9992,2 53147  53.2152 149.4157 0001730  92.4328 267.6862 15.08863627 33199,6917.808,95.436,540.87,538.476,0.0
53147.0,STARLINK-4094,PAYLOAD,2023-02-16 13:23:24,15.0886835,0.0001668,53.2164,149.1159,95.2391,264.8791,0.00044862,6.864e-05,0.0,0 STARLINK-4094,1 53147U 22083R   23047.55791889  .00006864  00000-0  44862-3 0  9994,2 53147  53.2164 149.1159 0001668  95.2391 264.8791 15.08868350 33224,6917.794,95.436,540.813,538.505,0.0
53147.0,STARLINK-4094,PAYLOAD,2023-02-16 16:34:10,15.08872099,0.0001726,53.2164,148.52,97.9076,262.2112,0.0004898,7.523e-05,0.0,0 STARLINK-4094,1 53147U 22083R   23047.69039520  .00007523  00000-0  48980-3 0  9994,2 53147  53.2164 148.5200 0001726  97.9076 262.2112 15.08872099 33244,6917.782,95.436,540.841,538.453,0.0
53147.0,STARLINK-4094,PAYLOAD,2023-02-17 13:14:12,15.08831053,0.0001061,53.217,144.6578,96.994,263.1173,-0.00021876,-3.767e-05,0.0,0 STARLINK-4094,1 53147U 22083R   23048.55153000 -.00003767  00000-0 -21876-3 0  9993,2 53147  53.2170 144.6578 0001061  96.9940 263.1173 15.08831053 33351,6917.908,95.438,540.507,539.039,0.0
53147.0,STARLINK-4094,PAYLOAD,2023-02-17 16:24:58,15.08832347,0.0001183,53.2164,144.062,101.4377,258.6748,-1.9199e-05,-5.93e-06,0.0,0 STARLINK-4094,1 53147U 22083R   23048.68401065 -.00000593  00000-0 -19199-4 0  9994,2 53147  53.2164 144.0620 0001183 101.4377 258.6748 15.08832347 33395,6917.904,95.438,540.587,538.95,0.0
53147.0,STARLINK-4094,PAYLOAD,2023-02-18 06:43:28,15.08809098,0.0001047,53.2167,141.3838,115.8926,244.2174,-8.4497e-05,-1.631e-05,0.0,0 STARLINK-4094,1 53147U 22083R   23049.28018668 -.00001631  00000-0 -84497-4 0  9991,2 53147  53.2167 141.3838 0001047 115.8926 244.2174 15.08809098 33466,6917.975,95.44,540.564,539.116,0.0
53147.0,STARLINK-4094,PAYLOAD,2023-02-18 13:05:01,15.08818692,9.71e-05,53.2161,140.1954,104.3453,255.7646,0.00041357,6.296e-05,0.0,0 STARLINK-4094,1 53147U 22083R   23049.54515088  .00006296  00000-0  41357-3 0  9995,2 53147  53.2161 140.1954 0000971 104.3453 255.7646 15.08818692 33527,6917.946,95.439,540.482,539.139,0.0
53147.0,STARLINK-4094,PAYLOAD,2023-02-18 16:15:47,15.08822838,8.12e-05,53.2168,139.6008,104.4661,255.6421,0.0008566,0.00013365,0.0,0 STARLINK-4094,1 53147U 22083R   23049.67763329  .00013365  00000-0  85660-3 0  9992,2 53147  53.2168 139.6008 0000812 104.4661 255.6421 15.08822838 33520,6917.933,95.439,540.36,539.236,0.0
53147.0,STARLINK-4094,PAYLOAD,2023-02-19 11:20:24,15.08861438,8.99e-05,53.2173,136.0341,114.4047,245.7039,0.0012761,0.00020091,0.0,0 STARLINK-4094,1 53147U 22083R   23050.47250922  .00020091  00000-0  12761-2 0  9997,2 53147  53.2173 136.0341 0000899 114.4047 245.7039 15.08861438 33648,6917.815,95.436,540.302,539.058,0.0
53147.0,STARLINK-4094,PAYLOAD,2023-02-19 12:55:47,15.08866265,9.43e-05,53.2173,135.7383,114.4936,245.6155,0.0013521,0.00021312,0.0,0 STARLINK-4094,1 53147U 22083R   23050.53874791  .00021312  00000-0  13521-2 0  9992,2 53147  53.2173 135.7383 0000943 114.4936 245.6155 15.08866265 33671,6917.8,95.436,540.317,539.013,0.0
